{
  "type": "FeatureCollection",
  "features": [
    {
      "type": "Feature",
      "properties": {
        "norad_id": 35201,
        "name": "FENGYUN 1C DEB",
        "group": "fengyun-1c-debris",
        "lat": -30.86903372538564,
        "lon": 164.8188249347971,
        "alt_km": 859.5162672341658,
        "timestamp": "2025-12-06T20:37:56.360355+00:00",
        "meta_object_name": "FENGYUN 1C DEB",
        "meta_object_id": "1999-025DPH",
        "meta_epoch": "2025-12-06T07:48:17.642016",
        "meta_mean_motion": 14.11048703,
        "meta_eccentricity": 0.00057709,
        "meta_inclination": 98.7079,
        "meta_ra_of_asc_node": 349.557,
        "meta_arg_of_pericenter": 270.7578,
        "meta_mean_anomaly": 106.9618,
        "meta_ephemeris_type": 0,
        "meta_classification_type": "U",
        "meta_norad_cat_id": 35201,
        "meta_element_set_no": 999,
        "meta_rev_at_epoch": 86929,
        "meta_bstar": 0.00021062979,
        "meta_mean_motion_dot": 3.36e-06,
        "meta_mean_motion_ddot": 0,
        "tle_line1": "1 35201U 99025DPH 25340.32520419  .00000336  00000+0  21063-3 0  9992",
        "tle_line2": "2 35201  98.7079 349.5570 0005770 270.7578 106.9618 14.11048703869295"
      },
      "geometry": {
        "type": "Point",
        "coordinates": [
          164.8188249347971,
          -30.86903372538564
        ]
      }
    },
    {
      "type": "Feature",
      "properties": {
        "norad_id": 35202,
        "name": "FENGYUN 1C DEB",
        "group": "fengyun-1c-debris",
        "lat": -36.2310891857804,
        "lon": 33.45766568295739,
        "alt_km": 983.2464514912817,
        "timestamp": "2025-12-06T20:37:56.360366+00:00",
        "meta_object_name": "FENGYUN 1C DEB",
        "meta_object_id": "1999-025DPJ",
        "meta_epoch": "2025-11-30T10:05:49.025184",
        "meta_mean_motion": 13.34730307,
        "meta_eccentricity": 0.03739167,
        "meta_inclination": 100.0942,
        "meta_ra_of_asc_node": 19.5924,
        "meta_arg_of_pericenter": 37.6604,
        "meta_mean_anomaly": 325.0083,
        "meta_ephemeris_type": 0,
        "meta_classification_type": "U",
        "meta_norad_cat_id": 35202,
        "meta_element_set_no": 999,
        "meta_rev_at_epoch": 56812,
        "meta_bstar": 0.00081043758,
        "meta_mean_motion_dot": 5.61e-06,
        "meta_mean_motion_ddot": 0,
        "tle_line1": "1 35202U 99025DPJ 25334.42070631  .00000561  00000+0  81044-3 0  9998",
        "tle_line2": "2 35202 100.0942  19.5924 0373916  37.6604 325.0083 13.34730307568129"
      },
      "geometry": {
        "type": "Point",
        "coordinates": [
          33.45766568295739,
          -36.2310891857804
        ]
      }
    },
    {
      "type": "Feature",
      "properties": {
        "norad_id": 35203,
        "name": "FENGYUN 1C DEB",
        "group": "fengyun-1c-debris",
        "lat": -49.74004062138224,
        "lon": 112.23141529014305,
        "alt_km": 954.3714000030932,
        "timestamp": "2025-12-06T20:37:56.360376+00:00",
        "meta_object_name": "FENGYUN 1C DEB",
        "meta_object_id": "1999-025DPK",
        "meta_epoch": "2025-12-06T05:00:59.542272",
        "meta_mean_motion": 13.26399216,
        "meta_eccentricity": 0.05115131,
        "meta_inclination": 102.0754,
        "meta_ra_of_asc_node": 306.1141,
        "meta_arg_of_pericenter": 173.6247,
        "meta_mean_anomaly": 187.1713,
        "meta_ephemeris_type": 0,
        "meta_classification_type": "U",
        "meta_norad_cat_id": 35203,
        "meta_element_set_no": 999,
        "meta_rev_at_epoch": 59564,
        "meta_bstar": 0.0024845166,
        "meta_mean_motion_dot": 2.18e-05,
        "meta_mean_motion_ddot": 0,
        "tle_line1": "1 35203U 99025DPK 25340.20902248  .00002180  00000+0  24845-2 0  9994",
        "tle_line2": "2 35203 102.0754 306.1141 0511513 173.6247 187.1713 13.26399216595645"
      },
      "geometry": {
        "type": "Point",
        "coordinates": [
          112.23141529014305,
          -49.74004062138224
        ]
      }
    },
    {
      "type": "Feature",
      "properties": {
        "norad_id": 35204,
        "name": "FENGYUN 1C DEB",
        "group": "fengyun-1c-debris",
        "lat": 44.15804064184876,
        "lon": 160.14836981523234,
        "alt_km": 713.9476021857909,
        "timestamp": "2025-12-06T20:37:56.360409+00:00",
        "meta_object_name": "FENGYUN 1C DEB",
        "meta_object_id": "1999-025DPL",
        "meta_epoch": "2025-12-06T12:15:29.868768",
        "meta_mean_motion": 14.48628518,
        "meta_eccentricity": 0.00393604,
        "meta_inclination": 99.0062,
        "meta_ra_of_asc_node": 168.6356,
        "meta_arg_of_pericenter": 342.0386,
        "meta_mean_anomaly": 43.9019,
        "meta_ephemeris_type": 0,
        "meta_classification_type": "U",
        "meta_norad_cat_id": 35204,
        "meta_element_set_no": 999,
        "meta_rev_at_epoch": 90840,
        "meta_bstar": 0.0040363586,
        "meta_mean_motion_dot": 0.00015319,
        "meta_mean_motion_ddot": 0,
        "tle_line1": "1 35204U 99025DPL 25340.51076237  .00015319  00000+0  40364-2 0  9991",
        "tle_line2": "2 35204  99.0062 168.6356 0039360 342.0386  43.9019 14.48628518908408"
      },
      "geometry": {
        "type": "Point",
        "coordinates": [
          160.14836981523234,
          44.15804064184876
        ]
      }
    },
    {
      "type": "Feature",
      "properties": {
        "norad_id": 35207,
        "name": "FENGYUN 1C DEB",
        "group": "fengyun-1c-debris",
        "lat": 3.7254358291509533,
        "lon": -100.4834692567973,
        "alt_km": 715.7994325263844,
        "timestamp": "2025-12-06T20:37:56.360421+00:00",
        "meta_object_name": "FENGYUN 1C DEB",
        "meta_object_id": "1999-025DPP",
        "meta_epoch": "2025-11-29T17:50:26.900160",
        "meta_mean_motion": 14.55080945,
        "meta_eccentricity": 0.0054743,
        "meta_inclination": 98.6905,
        "meta_ra_of_asc_node": 71.5483,
        "meta_arg_of_pericenter": 294.9923,
        "meta_mean_anomaly": 64.5593,
        "meta_ephemeris_type": 0,
        "meta_classification_type": "U",
        "meta_norad_cat_id": 35207,
        "meta_element_set_no": 999,
        "meta_rev_at_epoch": 64715,
        "meta_bstar": 0.0019605249,
        "meta_mean_motion_dot": 8.586e-05,
        "meta_mean_motion_ddot": 0,
        "tle_line1": "1 35207U 99025DPP 25333.74336690  .00008586  00000+0  19605-2 0  9995",
        "tle_line2": "2 35207  98.6905  71.5483 0054743 294.9923  64.5593 14.55080945647151"
      },
      "geometry": {
        "type": "Point",
        "coordinates": [
          -100.4834692567973,
          3.7254358291509533
        ]
      }
    },
    {
      "type": "Feature",
      "properties": {
        "norad_id": 35208,
        "name": "FENGYUN 1C DEB",
        "group": "fengyun-1c-debris",
        "lat": -79.46395944982085,
        "lon": 122.75860296175314,
        "alt_km": 903.9323358543497,
        "timestamp": "2025-12-06T20:37:56.360432+00:00",
        "meta_object_name": "FENGYUN 1C DEB",
        "meta_object_id": "1999-025DPQ",
        "meta_epoch": "2025-11-27T19:11:53.318688",
        "meta_mean_motion": 13.99599013,
        "meta_eccentricity": 0.01006373,
        "meta_inclination": 98.9056,
        "meta_ra_of_asc_node": 351.4058,
        "meta_arg_of_pericenter": 197.6504,
        "meta_mean_anomaly": 162.1154,
        "meta_ephemeris_type": 0,
        "meta_classification_type": "U",
        "meta_norad_cat_id": 35208,
        "meta_element_set_no": 999,
        "meta_rev_at_epoch": 90354,
        "meta_bstar": 0.00091687477,
        "meta_mean_motion_dot": 1.356e-05,
        "meta_mean_motion_ddot": 0,
        "tle_line1": "1 35208U 99025DPQ 25331.79992267  .00001356  00000+0  91687-3 0  9996",
        "tle_line2": "2 35208  98.9056 351.4058 0100637 197.6504 162.1154 13.99599013903542"
      },
      "geometry": {
        "type": "Point",
        "coordinates": [
          122.75860296175314,
          -79.46395944982085
        ]
      }
    },
    {
      "type": "Feature",
      "properties": {
        "norad_id": 35210,
        "name": "FENGYUN 1C DEB",
        "group": "fengyun-1c-debris",
        "lat": -24.387532393665506,
        "lon": 160.1910184929115,
        "alt_km": 763.5522859483053,
        "timestamp": "2025-12-06T20:37:56.360442+00:00",
        "meta_object_name": "FENGYUN 1C DEB",
        "meta_object_id": "1999-025DPS",
        "meta_epoch": "2025-12-05T23:50:18.341376",
        "meta_mean_motion": 14.33492757,
        "meta_eccentricity": 0.00493395,
        "meta_inclination": 99.0965,
        "meta_ra_of_asc_node": 343.4463,
        "meta_arg_of_pericenter": 258.927,
        "meta_mean_anomaly": 157.4301,
        "meta_ephemeris_type": 0,
        "meta_classification_type": "U",
        "meta_norad_cat_id": 35210,
        "meta_element_set_no": 999,
        "meta_rev_at_epoch": 90026,
        "meta_bstar": 0.004026418,
        "meta_mean_motion_dot": 0.0001125,
        "meta_mean_motion_ddot": 0,
        "tle_line1": "1 35210U 99025DPS 25339.99326784  .00011250  00000+0  40264-2 0  9992",
        "tle_line2": "2 35210  99.0965 343.4463 0049339 258.9270 157.4301 14.33492757900262"
      },
      "geometry": {
        "type": "Point",
        "coordinates": [
          160.1910184929115,
          -24.387532393665506
        ]
      }
    }
  ]
}